[{"OBJECT_NAME":"STARLINK-3799","OBJECT_ID":"2022-045BD","EPOCH":"2026-03-09T12:44:10.755456","MEAN_MOTION":15.09112247,"ECCENTRICITY":0.00013442,"INCLINATION":53.2162,"RA_OF_ASC_NODE":189.8374,"ARG_OF_PERICENTER":65.0559,"MEAN_ANOMALY":295.0573,"EPHEMERIS_TYPE":0,"CLASSIFICATION_TYPE":"U","NORAD_CAT_ID":52382,"ELEMENT_SET_NO":999,"REV_AT_EPOCH":21590,"BSTAR":0.00071977404,"MEAN_MOTION_DOT":0.00011271,"MEAN_MOTION_DDOT":0},{"OBJECT_NAME":"JILIN-01 KUANFU 02B 3","OBJECT_ID":"2024-169C","EPOCH":"2026-03-09T22:06:48.862368","MEAN_MOTION":15.0924242,"ECCENTRICITY":0.00160506,"INCLINATION":97.5557,"RA_OF_ASC_NODE":159.7436,"ARG_OF_PERICENTER":304.8201,"MEAN_ANOMALY":55.1517,"EPHEMERIS_TYPE":0,"CLASSIFICATION_TYPE":"U","NORAD_CAT_ID":61191,"ELEMENT_SET_NO":999,"REV_AT_EPOCH":8085,"BSTAR":0.00039569069,"MEAN_MOTION_DOT":6.253e-5,"MEAN_MOTION_DDOT":0}]
